{"type": "FeatureCollection", "features": [ {"type": "Feature", "properties": {"norad_id": 43622, "name": "BEIDOU-3 M13 (C32)", "group": "beidou", "lat": -38.47203318876489, "lon": -79.8823993564231, "alt_km": 21526.41765021206, "timestamp": "2025-12-26T23:26:42.394969+00:00", "meta": {"OBJECT_NAME": "BEIDOU-3 M13 (C32)", "OBJECT_ID": "2018-072A", "EPOCH": "2025-12-26T15:16:14.790720", "MEAN_MOTION": 1.86231078, "ECCENTRICITY": 0.0006463, "INCLINATION": 56.4705, "RA_OF_ASC_NODE": 68.3604, "ARG_OF_PERICENTER": 297.862, "MEAN_ANOMALY": 62.1239, "EPHEMERIS_TYPE": 0, "CLASSIFICATION_TYPE": "U", "NORAD_CAT_ID": 43622, "ELEMENT_SET_NO": 999, "REV_AT_EPOCH": 4944, "BSTAR": 0, "MEAN_MOTION_DOT": -3.2e-07, "MEAN_MOTION_DDOT": 0}, "tle": {"line1": "1 43622U 18072A   25360.63628230 -.00000032  00000+0  00000+0 0  9995", "line2": "2 43622  56.4705  68.3604 0006463 297.8620  62.1239  1.86231078 49446"}}, "geometry": {"type": "Point", "coordinates": [-79.8823993564231, -38.47203318876489]}}, {"type": "Feature", "properties": {"norad_id": 43623, "name": "BEIDOU-3 M14 (C33)", "group": "beidou", "lat": -33.51324704008716, "lon": 42.348690535487414, "alt_km": 21522.341080220336, "timestamp": "2025-12-26T23:26:42.394980+00:00", "meta": {"OBJECT_NAME": "BEIDOU-3 M14 (C33)", "OBJECT_ID": "2018-072B", "EPOCH": "2025-12-23T06:43:13.861056", "MEAN_MOTION": 1.86231163, "ECCENTRICITY": 0.00035931, "INCLINATION": 56.4696, "RA_OF_ASC_NODE": 68.4654, "ARG_OF_PERICENTER": 327.0772, "MEAN_ANOMALY": 32.9541, "EPHEMERIS_TYPE": 0, "CLASSIFICATION_TYPE": "U", "NORAD_CAT_ID": 43623, "ELEMENT_SET_NO": 999, "REV_AT_EPOCH": 4937, "BSTAR": 0, "MEAN_MOTION_DOT": -2.6e-07, "MEAN_MOTION_DDOT": 0}, "tle": {"line1": "1 43623U 18072B   25357.28002154 -.00000026  00000+0  00000+0 0  9997", "line2": "2 43623  56.4696  68.4654 0003593 327.0772  32.9541  1.86231163 49375"}}, "geometry": {"type": "Point", "coordinates": [42.348690535487414, -33.51324704008716]}}, {"type": "Feature", "properties": {"norad_id": 43647, "name": "BEIDOU-3 M16 (C35)", "group": "beidou", "lat": -26.17400566710636, "lon": 146.72190488150744, "alt_km": 21551.7656264754, "timestamp": "2025-12-26T23:26:42.394990+00:00", "meta": {"OBJECT_NAME": "BEIDOU-3 M16 (C35)", "OBJECT_ID": "2018-078A", "EPOCH": "2025-12-26T02:56:19.347360", "MEAN_MOTION": 1.86232218, "ECCENTRICITY": 0.0007499, "INCLINATION": 54.2494, "RA_OF_ASC_NODE": 306.0535, "ARG_OF_PERICENTER": 20.7112, "MEAN_ANOMALY": 339.3289, "EPHEMERIS_TYPE": 0, "CLASSIFICATION_TYPE": "U", "NORAD_CAT_ID": 43647, "ELEMENT_SET_NO": 999, "REV_AT_EPOCH": 4893, "BSTAR": 0, "MEAN_MOTION_DOT": -5.5e-07, "MEAN_MOTION_DDOT": 0}, "tle": {"line1": "1 43647U 18078A   25360.12244615 -.00000055  00000+0  00000+0 0  9998", "line2": "2 43647  54.2494 306.0535 0007499  20.7112 339.3289  1.86232218 48932"}}, "geometry": {"type": "Point", "coordinates": [146.72190488150744, -26.17400566710636]}}, {"type": "Feature", "properties": {"norad_id": 43648, "name": "BEIDOU-3 M15 (C34)", "group": "beidou", "lat": 40.83746096866533, "lon": 87.53974976610546, "alt_km": 21526.22972347827, "timestamp": "2025-12-26T23:26:42.395000+00:00", "meta": {"OBJECT_NAME": "BEIDOU-3 M15 (C34)", "OBJECT_ID": "2018-078B", "EPOCH": "2025-12-26T06:02:24.001152", "MEAN_MOTION": 1.86232322, "ECCENTRICITY": 0.0004086, "INCLINATION": 54.2454, "RA_OF_ASC_NODE": 306.0502, "ARG_OF_PERICENTER": 19.6229, "MEAN_ANOMALY": 340.4025, "EPHEMERIS_TYPE": 0, "CLASSIFICATION_TYPE": "U", "NORAD_CAT_ID": 43648, "ELEMENT_SET_NO": 999, "REV_AT_EPOCH": 4895, "BSTAR": 0, "MEAN_MOTION_DOT": -5.6e-07, "MEAN_MOTION_DDOT": 0}, "tle": {"line1": "1 43648U 18078B   25360.25166668 -.00000056  00000+0  00000+0 0  9995", "line2": "2 43648  54.2454 306.0502 0004086  19.6229 340.4025  1.86232322 48957"}}, "geometry": {"type": "Point", "coordinates": [87.53974976610546, 40.83746096866533]}}, {"type": "Feature", "properties": {"norad_id": 43683, "name": "BEIDOU-3 G1 (C59)", "group": "beidou", "lat": 2.158221007703723, "lon": -132.66204296255114, "alt_km": 35786.206999105256, "timestamp": "2025-12-26T23:26:42.395010+00:00", "meta": {"OBJECT_NAME": "BEIDOU-3 G1 (C59)", "OBJECT_ID": "2018-085A", "EPOCH": "2025-12-26T05:08:26.429856", "MEAN_MOTION": 1.0026556, "ECCENTRICITY": 0.0001266, "INCLINATION": 2.6395, "RA_OF_ASC_NODE": 102.5209, "ARG_OF_PERICENTER": 50.4767, "MEAN_ANOMALY": 159.0004, "EPHEMERIS_TYPE": 0, "CLASSIFICATION_TYPE": "U", "NORAD_CAT_ID": 43683, "ELEMENT_SET_NO": 999, "REV_AT_EPOCH": 2632, "BSTAR": 0, "MEAN_MOTION_DOT": -2.58e-06, "MEAN_MOTION_DDOT": 0}, "tle": {"line1": "1 43683U 18085A   25360.21419479 -.00000258  00000+0  00000+0 0  9993", "line2": "2 43683   2.6395 102.5209 0001266  50.4767 159.0004  1.00265560 26321"}}, "geometry": {"type": "Point", "coordinates": [-132.66204296255114, 2.158221007703723]}}, {"type": "Feature", "properties": {"norad_id": 43706, "name": "BEIDOU-3 M17 (C36)", "group": "beidou", "lat": 15.961474684347818, "lon": -159.93083520007667, "alt_km": 21521.54010558291, "timestamp": "2025-12-26T23:26:42.395021+00:00", "meta": {"OBJECT_NAME": "BEIDOU-3 M17 (C36)", "OBJECT_ID": "2018-093A", "EPOCH": "2025-12-26T03:36:39.806208", "MEAN_MOTION": 1.86228273, "ECCENTRICITY": 0.00059945, "INCLINATION": 54.1735, "RA_OF_ASC_NODE": 188.1665, "ARG_OF_PERICENTER": 306.9478, "MEAN_ANOMALY": 238.7851, "EPHEMERIS_TYPE": 0, "CLASSIFICATION_TYPE": "U", "NORAD_CAT_ID": 43706, "ELEMENT_SET_NO": 999, "REV_AT_EPOCH": 4831, "BSTAR": 0, "MEAN_MOTION_DOT": 1.19e-06, "MEAN_MOTION_DDOT": 0}, "tle": {"line1": "1 43706U 18093A   25360.15046072  .00000119  00000+0  00000+0 0  9991", "line2": "2 43706  54.1735 188.1665 0005994 306.9478 238.7851  1.86228273 48315"}}, "geometry": {"type": "Point", "coordinates": [-159.93083520007667, 15.961474684347818]}}, {"type": "Feature", "properties": {"norad_id": 43707, "name": "BEIDOU-3 M18 (C37)", "group": "beidou", "lat": 48.41319692079582, "lon": -46.38532212094842, "alt_km": 21530.858177014652, "timestamp": "2025-12-26T23:26:42.395031+00:00", "meta": {"OBJECT_NAME": "BEIDOU-3 M18 (C37)", "OBJECT_ID": "2018-093B", "EPOCH": "2025-12-23T01:12:21.238848", "MEAN_MOTION": 1.86226616, "ECCENTRICITY": 0.0006147, "INCLINATION": 54.1741, "RA_OF_ASC_NODE": 188.2636, "ARG_OF_PERICENTER": 354.1254, "MEAN_ANOMALY": 5.9078, "EPHEMERIS_TYPE": 0, "CLASSIFICATION_TYPE": "U", "NORAD_CAT_ID": 43707, "ELEMENT_SET_NO": 999, "REV_AT_EPOCH": 4825, "BSTAR": 0, "MEAN_MOTION_DOT": 9.6e-07, "MEAN_MOTION_DDOT": 0}, "tle": {"line1": "1 43707U 18093B   25357.05024582  .00000096  00000+0  00000+0 0  9993", "line2": "2 43707  54.1741 188.2636 0006147 354.1254   5.9078  1.86226616 48257"}}, "geometry": {"type": "Point", "coordinates": [-46.38532212094842, 48.41319692079582]}}, {"type": "Feature", "properties": {"norad_id": 44231, "name": "BEIDOU-2 G8 (C01)", "group": "beidou", "lat": 0.6485137794854821, "lon": -128.17190842225259, "alt_km": 35792.50838639677, "timestamp": "2025-12-26T23:26:42.395041+00:00", "meta": {"OBJECT_NAME": "BEIDOU-2 G8 (C01)", "OBJECT_ID": "2019-027A", "EPOCH": "2025-12-26T12:18:38.668320", "MEAN_MOTION": 1.00273913, "ECCENTRICITY": 0.00083367, "INCLINATION": 1.6946, "RA_OF_ASC_NODE": 74.74, "ARG_OF_PERICENTER": 258.9308, "MEAN_ANOMALY": 90.7708, "EPHEMERIS_TYPE": 0, "CLASSIFICATION_TYPE": "U", "NORAD_CAT_ID": 44231, "ELEMENT_SET_NO": 999, "REV_AT_EPOCH": 2434, "BSTAR": 0, "MEAN_MOTION_DOT": -2.25e-06, "MEAN_MOTION_DDOT": 0}, "tle": {"line1": "1 44231U 19027A   25360.51294755 -.00000225  00000+0  00000+0 0  9995", "line2": "2 44231   1.6946  74.7400 0008336 258.9308  90.7708  1.00273913 24349"}}, "geometry": {"type": "Point", "coordinates": [-128.17190842225259, 0.6485137794854821]}}, {"type": "Feature", "properties": {"norad_id": 44337, "name": "BEIDOU-3 IGSO-2 (C39)", "group": "beidou", "lat": 36.315588406400806, "lon": -168.9119998831946, "alt_km": 35929.797857925136, "timestamp": "2025-12-26T23:26:42.395051+00:00", "meta": {"OBJECT_NAME": "BEIDOU-3 IGSO-2 (C39)", "OBJECT_ID": "2019-035A", "EPOCH": "2025-12-26T08:27:52.331328", "MEAN_MOTION": 1.00266958, "ECCENTRICITY": 0.0037903, "INCLINATION": 55.2292, "RA_OF_ASC_NODE": 160.3818, "ARG_OF_PERICENTER": 202.693, "MEAN_ANOMALY": 338.2763, "EPHEMERIS_TYPE": 0, "CLASSIFICATION_TYPE": "U", "NORAD_CAT_ID": 44337, "ELEMENT_SET_NO": 999, "REV_AT_EPOCH": 2393, "BSTAR": 0, "MEAN_MOTION_DOT": -6e-07, "MEAN_MOTION_DDOT": 0}, "tle": {"line1": "1 44337U 19035A   25360.35268902 -.00000060  00000+0  00000+0 0  9995", "line2": "2 44337  55.2292 160.3818 0037903 202.6930 338.2763  1.00266958 23935"}}, "geometry": {"type": "Point", "coordinates": [-168.9119998831946, 36.315588406400806]}}, {"type": "Feature", "properties": {"norad_id": 44542, "name": "BEIDOU-3 M24 (C46)", "group": "beidou", "lat": 47.548442933715535, "lon": -119.8901407185648, "alt_km": 21501.765219301302, "timestamp": "2025-12-26T23:26:42.395062+00:00", "meta": {"OBJECT_NAME": "BEIDOU-3 M24 (C46)", "OBJECT_ID": "2019-061A", "EPOCH": "2025-12-25T19:20:31.720416", "MEAN_MOTION": 1.86229328, "ECCENTRICITY": 0.00095592, "INCLINATION": 54.4007, "RA_OF_ASC_NODE": 188.5751, "ARG_OF_PERICENTER": 26.2339, "MEAN_ANOMALY": 333.8493, "EPHEMERIS_TYPE": 0, "CLASSIFICATION_TYPE": "U", "NORAD_CAT_ID": 44542, "ELEMENT_SET_NO": 999, "REV_AT_EPOCH": 4256, "BSTAR": 0, "MEAN_MOTION_DOT": 1.16e-06, "MEAN_MOTION_DDOT": 0}, "tle": {"line1": "1 44542U 19061A   25359.80592269  .00000116  00000+0  00000+0 0  9997", "line2": "2 44542  54.4007 188.5751 0009559  26.2339 333.8493  1.86229328 42560"}}, "geometry": {"type": "Point", "coordinates": [-119.8901407185648, 47.548442933715535]}}]}